OSCAR 7 (AO-7)          
1 07530U 74089B   24281.44627236 -.00000013  00000+0  20835-3 0  9999
2 07530 101.9875 277.1788 0011924 229.5212 288.3923 12.53680613283348
PHASE 3B (AO-10)        
1 14129U 83058B   24274.29385442 -.00000239  00000+0  00000+0 0  9990
2 14129  27.3675 322.5217 6033769 305.0498  12.3225  2.05871375282616
UOSAT 2 (UO-11)         
1 14781U 84021B   24281.39138630  .00007946  00000+0  87895-3 0  9991
2 14781  97.7199 247.4296 0009868  71.3295 288.8992 14.87594399186164
LUSAT (LO-19)           
1 20442U 90005G   24280.75380355  .00001063  00000+0  39978-3 0  9996
2 20442  98.8922 274.0147 0010939 214.4678 145.5797 14.33692087813767
EYESAT A (AO-27)        
1 22825U 93061C   24281.44647149  .00000830  00000+0  33513-3 0  9992
2 22825  98.7755 335.3285 0009429 109.0915 251.1289 14.30606267618930
ITAMSAT (IO-26)         
1 22826U 93061D   24280.62558704  .00000839  00000+0  33602-3 0  9998
2 22826  98.7703 334.3677 0009954  97.6268 262.6046 14.30997492618834
RADIO ROSTO (RS-15)     
1 23439U 94085A   24280.86290703 -.00000030  00000+0  34810-3 0  9990
2 23439  64.8158 223.1667 0147188 122.5283 238.9958 11.27578833226182
JAS-2 (FO-29)           
1 24278U 96046B   24281.06109518  .00000125  00000+0  16575-3 0  9999
2 24278  98.5810 201.0512 0348947 258.4735  97.7038 13.53215106389816
TECHSAT 1B (GO-32)      
1 25397U 98043D   24280.87987603  .00000729  00000+0  33648-3 0  9998
2 25397  98.9371 249.3490 0001384 149.2798 210.8461 14.24144817363316
ISS (ZARYA)             
1 25544U 98067A   24281.53350623  .00033313  00000+0  60150-3 0  9991
2 25544  51.6369 118.9253 0008961  46.9406 313.2331 15.49376493475973
PCSAT (NO-44)           
1 26931U 01043C   24281.42822352  .00001456  00000+0  57903-3 0  9996
2 26931  67.0526  41.5480 0007679 265.4309  94.5915 14.31417288202173
SAUDISAT 1C (SO-50)     
1 27607U 02058C   24280.87532445  .00008119  00000+0  10834-2 0  9997
2 27607  64.5548 238.0470 0028018  51.6706 308.6911 14.79870645172845
CUTE-1 (CO-55)          
1 27844U 03031E   24280.78942154  .00001938  00000+0  87061-3 0  9993
2 27844  98.6799 286.2946 0009742 173.9803 186.1494 14.23520806103665
CUBESAT XI-IV (CO-57)   
1 27848U 03031J   24280.76865067  .00001636  00000+0  74666-3 0  9994
2 27848  98.6829 286.4529 0009329 190.3784 169.7203 14.22925152103403
MOZHAYETS 4 (RS-22)     
1 27939U 03042A   24281.57113610  .00006535  00000+0  10765-2 0  9999
2 27939  98.3053  79.7025 0012668  67.6881   6.7700 14.70804082124796
CUBESAT XI-V            
1 28895U 05043F   24281.35115765  .00010487  00000+0  17997-2 0  9998
2 28895  98.2181  57.5124 0015209   6.5976 353.5426 14.68817125 11145
CUTE-1.7+APD II (CO-65) 
1 32785U 08021C   24280.85554946  .00020087  00000+0  16533-2 0  9994
2 32785  97.7690 245.4793 0008221 329.3935  30.6807 14.99107098892265
SEEDS II (CO-66)        
1 32791U 08021J   24281.38930181  .00041890  00000+0  27155-2 0  9996
2 32791  97.7042 252.2802 0002127 319.1116  40.9952 15.07964958893483
YUBILEINY (RS-30)       
1 32953U 08025A   24281.50273666  .00000080  00000+0  50224-3 0  9992
2 32953  82.5085  19.6183 0019238 217.0357 142.9396 12.43149854743085
KKS-1 (KISEKI)          
1 33499U 09002H   24280.83378400  .00007729  00000+0  10347-2 0  9999
2 33499  98.1259 183.7279 0009719 123.6628 236.5511 14.79695811845051
SWISSCUBE               
1 35932U 09051B   24281.12532217  .00006839  00000+0  14394-2 0  9995
2 35932  98.4517 166.6245 0006882 344.8252  15.2740 14.59819955798920
BEESAT-1                
1 35933U 09051C   24280.67389405  .00005514  00000+0  11724-2 0  9997
2 35933  98.4450 166.9217 0005628   2.0774 358.0447 14.59446574798888
ITUPSAT1                
1 35935U 09051E   24281.11305230  .00005656  00000+0  12308-2 0  9999
2 35935  98.4548 167.0898 0007965   3.4179 356.7072 14.58355101798608
XIWANG-1 (HOPE-1)       
1 36122U 09072B   24281.44093963  .00000034  00000+0  20466-3 0  9994
2 36122 100.3091 236.8252 0007152 202.4549 157.6252 13.16409631711820
O/OREOS (USA 219)       
1 37224U 10062C   24280.74637847  .00011485  00000+0  12328-2 0  9995
2 37224  71.9747  36.6609 0014743 169.9849 190.1616 14.88636630 24421
JUGNU                   
1 37839U 11058B   24281.18062771  .00001504  00000+0  64888-3 0  9990
2 37839  19.9601 102.0574 0018738  92.7690  63.8552 14.13352552671584
SRMSAT                  
1 37841U 11058D   24280.91028199  .00001150  00000+0  48326-3 0  9995
2 37841  19.9710 200.9968 0011679 242.4367 178.8301 14.11231880670367
STRAND-1                
1 39090U 13009E   24280.95629805  .00002060  00000+0  71867-3 0  9993
2 39090  98.3812 106.1941 0007783 280.7384  79.2926 14.36332195608302
ZACUBE-1 (TSHEPISOSAT)  
1 39417U 13066B   24281.11914221  .00017590  00000+0  17184-2 0  9992
2 39417  97.7466 234.7933 0049707 147.2990 213.1322 14.91497699588256
GOMX-1                  
1 39430U 13066Q   24281.49819449  .00009841  00000+0  15964-2 0  9998
2 39430  97.7122 149.0590 0135817 255.4012 103.2099 14.65360023579488
